[
  {
    "COMMENT": "GENERATED VIA SPACETRACK.ORG API",
    "ORIGINATOR": "JSPOC",
    "NORAD_CAT_ID": "40076",
    "OBJECT_NAME": "TDS 1",
    "OBJECT_TYPE": "PAYLOAD",
    "CLASSIFICATION_TYPE": "U",
    "INTLDES": "14037H",
    "EPOCH": "2015-01-24 02:33:16",
    "EPOCH_MICROSECONDS": "549055",
    "MEAN_MOTION": "14.80708246",
    "ECCENTRICITY": "0.0006345",
    "INCLINATION": "98.3698",
    "RA_OF_ASC_NODE": "89.5987",
    "ARG_OF_PERICENTER": "15.4709",
    "MEAN_ANOMALY": "344.6695",
    "EPHEMERIS_TYPE": "0",
    "ELEMENT_SET_NO": "999",
    "REV_AT_EPOCH": "2949",
    "BSTAR": "7.6347e-05",
    "MEAN_MOTION_DOT": "5.3e-06",
    "MEAN_MOTION_DDOT": "0",
    "FILE": "1815505",
    "TLE_LINE0": "0 TDS 1",
    "TLE_LINE1": "1 40076U 14037H   15024.10644154  .00000530  00000-0  76347-4 0  9998",
    "TLE_LINE2": "2 40076 098.3698 089.5987 0006345 015.4709 344.6695 14.80708246 29493",
    "OBJECT_ID": "2014-037H",
    "OBJECT_NUMBER": "40076",
    "SEMIMAJOR_AXIS": "7005.226",
    "PERIOD": "97.250",
    "APOGEE": "631.536",
    "PERIGEE": "622.646"
  },
  {
    "COMMENT": "GENERATED VIA SPACETRACK.ORG API",
    "ORIGINATOR": "JSPOC",
    "NORAD_CAT_ID": "40076",
    "OBJECT_NAME": "TDS 1",
    "OBJECT_TYPE": "PAYLOAD",
    "CLASSIFICATION_TYPE": "U",
    "INTLDES": "14037H",
    "EPOCH": "2015-01-24 10:39:49",
    "EPOCH_MICROSECONDS": "321440",
    "MEAN_MOTION": "14.80708529",
    "ECCENTRICITY": "0.000633",
    "INCLINATION": "98.3697",
    "RA_OF_ASC_NODE": "89.9511",
    "ARG_OF_PERICENTER": "14.5734",
    "MEAN_ANOMALY": "345.5656",
    "EPHEMERIS_TYPE": "0",
    "ELEMENT_SET_NO": "999",
    "REV_AT_EPOCH": "2954",
    "BSTAR": "7.4597e-05",
    "MEAN_MOTION_DOT": "5.16e-06",
    "MEAN_MOTION_DDOT": "0",
    "FILE": "1815675",
    "TLE_LINE0": "0 TDS 1",
    "TLE_LINE1": "1 40076U 14037H   15024.44432085  .00000516  00000-0  74597-4 0  9992",
    "TLE_LINE2": "2 40076 098.3697 089.9511 0006330 014.5734 345.5656 14.80708529 29548",
    "OBJECT_ID": "2014-037H",
    "OBJECT_NUMBER": "40076",
    "SEMIMAJOR_AXIS": "7005.225",
    "PERIOD": "97.250",
    "APOGEE": "631.524",
    "PERIGEE": "622.656"
  },
  {
    "COMMENT": "GENERATED VIA SPACETRACK.ORG API",
    "ORIGINATOR": "JSPOC",
    "NORAD_CAT_ID": "40076",
    "OBJECT_NAME": "TDS 1",
    "OBJECT_TYPE": "PAYLOAD",
    "CLASSIFICATION_TYPE": "U",
    "INTLDES": "14037H",
    "EPOCH": "2015-01-24 18:46:22",
    "EPOCH_MICROSECONDS": "79135",
    "MEAN_MOTION": "14.80708783",
    "ECCENTRICITY": "0.0006315",
    "INCLINATION": "98.3695",
    "RA_OF_ASC_NODE": "90.3032",
    "ARG_OF_PERICENTER": "13.3923",
    "MEAN_ANOMALY": "346.744",
    "EPHEMERIS_TYPE": "0",
    "ELEMENT_SET_NO": "999",
    "REV_AT_EPOCH": "2959",
    "BSTAR": "7.312e-05",
    "MEAN_MOTION_DOT": "5.05e-06",
    "MEAN_MOTION_DDOT": "0",
    "FILE": "1815857",
    "TLE_LINE0": "0 TDS 1",
    "TLE_LINE1": "1 40076U 14037H   15024.78219999  .00000505  00000-0  73120-4 0  9995",
    "TLE_LINE2": "2 40076 098.3695 090.3032 0006315 013.3923 346.7440 14.80708783 29591",
    "OBJECT_ID": "2014-037H",
    "OBJECT_NUMBER": "40076",
    "SEMIMAJOR_AXIS": "7005.224",
    "PERIOD": "97.250",
    "APOGEE": "631.513",
    "PERIGEE": "622.665"
  },
  {
    "COMMENT": "GENERATED VIA SPACETRACK.ORG API",
    "ORIGINATOR": "JSPOC",
    "NORAD_CAT_ID": "40076",
    "OBJECT_NAME": "TDS 1",
    "OBJECT_TYPE": "PAYLOAD",
    "CLASSIFICATION_TYPE": "U",
    "INTLDES": "14037H",
    "EPOCH": "2015-01-25 02:52:54",
    "EPOCH_MICROSECONDS": "888672",
    "MEAN_MOTION": "14.80708993",
    "ECCENTRICITY": "0.0006247",
    "INCLINATION": "98.3695",
    "RA_OF_ASC_NODE": "90.6556",
    "ARG_OF_PERICENTER": "12.4856",
    "MEAN_ANOMALY": "347.652",
    "EPHEMERIS_TYPE": "0",
    "ELEMENT_SET_NO": "999",
    "REV_AT_EPOCH": "2964",
    "BSTAR": "7.1117e-05",
    "MEAN_MOTION_DOT": "4.9e-06",
    "MEAN_MOTION_DDOT": "0",
    "FILE": "1815994",
    "TLE_LINE0": "0 TDS 1",
    "TLE_LINE1": "1 40076U 14037H   15025.12007973  .00000490  00000-0  71117-4 0  9998",
    "TLE_LINE2": "2 40076 098.3695 090.6556 0006247 012.4856 347.6520 14.80708993 29642",
    "OBJECT_ID": "2014-037H",
    "OBJECT_NUMBER": "40076",
    "SEMIMAJOR_AXIS": "7005.224",
    "PERIOD": "97.250",
    "APOGEE": "631.465",
    "PERIGEE": "622.712"
  },
  {
    "COMMENT": "GENERATED VIA SPACETRACK.ORG API",
    "ORIGINATOR": "JSPOC",
    "NORAD_CAT_ID": "40076",
    "OBJECT_NAME": "TDS 1",
    "OBJECT_TYPE": "PAYLOAD",
    "CLASSIFICATION_TYPE": "U",
    "INTLDES": "14037H",
    "EPOCH": "2015-01-25 10:59:27",
    "EPOCH_MICROSECONDS": "627359",
    "MEAN_MOTION": "14.80709286",
    "ECCENTRICITY": "0.0006221",
    "INCLINATION": "98.3693",
    "RA_OF_ASC_NODE": "91.008",
    "ARG_OF_PERICENTER": "11.5495",
    "MEAN_ANOMALY": "348.5857",
    "EPHEMERIS_TYPE": "0",
    "ELEMENT_SET_NO": "999",
    "REV_AT_EPOCH": "2969",
    "BSTAR": "7.0154e-05",
    "MEAN_MOTION_DOT": "4.82e-06",
    "MEAN_MOTION_DDOT": "0",
    "FILE": "1816076",
    "TLE_LINE0": "0 TDS 1",
    "TLE_LINE1": "1 40076U 14037H   15025.45795865  .00000482  00000-0  70154-4 0  9999",
    "TLE_LINE2": "2 40076 098.3693 091.0080 0006221 011.5495 348.5857 14.80709286 29692",
    "OBJECT_ID": "2014-037H",
    "OBJECT_NUMBER": "40076",
    "SEMIMAJOR_AXIS": "7005.223",
    "PERIOD": "97.250",
    "APOGEE": "631.446",
    "PERIGEE": "622.730"
  },
  {
    "COMMENT": "GENERATED VIA SPACETRACK.ORG API",
    "ORIGINATOR": "JSPOC",
    "NORAD_CAT_ID": "40076",
    "OBJECT_NAME": "TDS 1",
    "OBJECT_TYPE": "PAYLOAD",
    "CLASSIFICATION_TYPE": "U",
    "INTLDES": "14037H",
    "EPOCH": "2015-01-25 19:06:00",
    "EPOCH_MICROSECONDS": "370368",
    "MEAN_MOTION": "14.80709707",
    "ECCENTRICITY": "0.0006244",
    "INCLINATION": "98.3693",
    "RA_OF_ASC_NODE": "91.3604",
    "ARG_OF_PERICENTER": "10.3961",
    "MEAN_ANOMALY": "349.737",
    "EPHEMERIS_TYPE": "0",
    "ELEMENT_SET_NO": "999",
    "REV_AT_EPOCH": "2974",
    "BSTAR": "7.1684e-05",
    "MEAN_MOTION_DOT": "4.94e-06",
    "MEAN_MOTION_DDOT": "0",
    "FILE": "1816286",
    "TLE_LINE0": "0 TDS 1",
    "TLE_LINE1": "1 40076U 14037H   15025.79583762  .00000494  00000-0  71684-4 0  9999",
    "TLE_LINE2": "2 40076 098.3693 091.3604 0006244 010.3961 349.7370 14.80709707 29744",
    "OBJECT_ID": "2014-037H",
    "OBJECT_NUMBER": "40076",
    "SEMIMAJOR_AXIS": "7005.221",
    "PERIOD": "97.250",
    "APOGEE": "631.460",
    "PERIGEE": "622.712"
  },
  {
    "COMMENT": "GENERATED VIA SPACETRACK.ORG API",
    "ORIGINATOR": "JSPOC",
    "NORAD_CAT_ID": "40076",
    "OBJECT_NAME": "TDS 1",
    "OBJECT_TYPE": "PAYLOAD",
    "CLASSIFICATION_TYPE": "U",
    "INTLDES": "14037H",
    "EPOCH": "2015-01-26 03:12:33",
    "EPOCH_MICROSECONDS": "134112",
    "MEAN_MOTION": "14.80710136",
    "ECCENTRICITY": "0.0006219",
    "INCLINATION": "98.3691",
    "RA_OF_ASC_NODE": "91.713",
    "ARG_OF_PERICENTER": "9.2456",
    "MEAN_ANOMALY": "350.8883",
    "EPHEMERIS_TYPE": "0",
    "ELEMENT_SET_NO": "999",
    "REV_AT_EPOCH": "2979",
    "BSTAR": "7.226e-05",
    "MEAN_MOTION_DOT": "4.98e-06",
    "MEAN_MOTION_DDOT": "0",
    "FILE": "1816491",
    "TLE_LINE0": "0 TDS 1",
    "TLE_LINE1": "1 40076U 14037H   15026.13371683  .00000498  00000-0  72260-4 0  9990",
    "TLE_LINE2": "2 40076 098.3691 091.7130 0006219 009.2456 350.8883 14.80710136 29793",
    "OBJECT_ID": "2014-037H",
    "OBJECT_NUMBER": "40076",
    "SEMIMAJOR_AXIS": "7005.220",
    "PERIOD": "97.250",
    "APOGEE": "631.441",
    "PERIGEE": "622.728"
  },
  {
    "COMMENT": "GENERATED VIA SPACETRACK.ORG API",
    "ORIGINATOR": "JSPOC",
    "NORAD_CAT_ID": "40076",
    "OBJECT_NAME": "TDS 1",
    "OBJECT_TYPE": "PAYLOAD",
    "CLASSIFICATION_TYPE": "U",
    "INTLDES": "14037H",
    "EPOCH": "2015-01-26 11:19:05",
    "EPOCH_MICROSECONDS": "836511",
    "MEAN_MOTION": "14.80710556",
    "ECCENTRICITY": "0.0006172",
    "INCLINATION": "98.369",
    "RA_OF_ASC_NODE": "92.0654",
    "ARG_OF_PERICENTER": "8.4908",
    "MEAN_ANOMALY": "351.641",
    "EPHEMERIS_TYPE": "0",
    "ELEMENT_SET_NO": "999",
    "REV_AT_EPOCH": "2984",
    "BSTAR": "7.2898e-05",
    "MEAN_MOTION_DOT": "5.03e-06",
    "MEAN_MOTION_DDOT": "0",
    "FILE": "1816611",
    "TLE_LINE0": "0 TDS 1",
    "TLE_LINE1": "1 40076U 14037H   15026.47159533  .00000503  00000-0  72898-4 0  9999",
    "TLE_LINE2": "2 40076 098.3690 092.0654 0006172 008.4908 351.6410 14.80710556 29845",
    "OBJECT_ID": "2014-037H",
    "OBJECT_NUMBER": "40076",
    "SEMIMAJOR_AXIS": "7005.219",
    "PERIOD": "97.250",
    "APOGEE": "631.407",
    "PERIGEE": "622.760"
  },
  {
    "COMMENT": "GENERATED VIA SPACETRACK.ORG API",
    "ORIGINATOR": "JSPOC",
    "NORAD_CAT_ID": "40076",
    "OBJECT_NAME": "TDS 1",
    "OBJECT_TYPE": "PAYLOAD",
    "CLASSIFICATION_TYPE": "U",
    "INTLDES": "14037H",
    "EPOCH": "2015-01-26 17:48:20",
    "EPOCH_MICROSECONDS": "2751",
    "MEAN_MOTION": "14.80710845",
    "ECCENTRICITY": "0.0006156",
    "INCLINATION": "98.369",
    "RA_OF_ASC_NODE": "92.3473",
    "ARG_OF_PERICENTER": "7.8057",
    "MEAN_ANOMALY": "352.3243",
    "EPHEMERIS_TYPE": "0",
    "ELEMENT_SET_NO": "999",
    "REV_AT_EPOCH": "2988",
    "BSTAR": "7.2898e-05",
    "MEAN_MOTION_DOT": "5.03e-06",
    "MEAN_MOTION_DDOT": "0",
    "FILE": "1816858",
    "TLE_LINE0": "0 TDS 1",
    "TLE_LINE1": "1 40076U 14037H   15026.74189818  .00000503  00000-0  72898-4 0  9998",
    "TLE_LINE2": "2 40076 098.3690 092.3473 0006156 007.8057 352.3243 14.80710845 29884",
    "OBJECT_ID": "2014-037H",
    "OBJECT_NUMBER": "40076",
    "SEMIMAJOR_AXIS": "7005.218",
    "PERIOD": "97.250",
    "APOGEE": "631.395",
    "PERIGEE": "622.770"
  }
]
